[{"OBJECT_NAME":"O3B FM20","OBJECT_ID":"2019-020A","EPOCH":"2026-04-05T01:14:56.220576","MEAN_MOTION":5.00115564,"ECCENTRICITY":0.0002663,"INCLINATION":0.053,"RA_OF_ASC_NODE":0.9141,"ARG_OF_PERICENTER":2.6728,"MEAN_ANOMALY":356.4138,"EPHEMERIS_TYPE":0,"CLASSIFICATION_TYPE":"U","NORAD_CAT_ID":44112,"ELEMENT_SET_NO":999,"REV_AT_EPOCH":12790,"BSTAR":0,"MEAN_MOTION_DOT":-2.5e-7,"MEAN_MOTION_DDOT":0},{"OBJECT_NAME":"O3B FM19","OBJECT_ID":"2019-020B","EPOCH":"2026-04-05T01:53:57.299424","MEAN_MOTION":5.00116062,"ECCENTRICITY":0.00042907,"INCLINATION":0.0578,"RA_OF_ASC_NODE":352.7385,"ARG_OF_PERICENTER":10.0637,"MEAN_ANOMALY":357.199,"EPHEMERIS_TYPE":0,"CLASSIFICATION_TYPE":"U","NORAD_CAT_ID":44113,"ELEMENT_SET_NO":999,"REV_AT_EPOCH":12778,"BSTAR":0,"MEAN_MOTION_DOT":-2.6e-7,"MEAN_MOTION_DDOT":0},{"OBJECT_NAME":"O3B FM17","OBJECT_ID":"2019-020C","EPOCH":"2026-04-05T18:12:48.193632","MEAN_MOTION":5.00115517,"ECCENTRICITY":0.0002633,"INCLINATION":0.0358,"RA_OF_ASC_NODE":348.7511,"ARG_OF_PERICENTER":22.7857,"MEAN_ANOMALY":348.4681,"EPHEMERIS_TYPE":0,"CLASSIFICATION_TYPE":"U","NORAD_CAT_ID":44114,"ELEMENT_SET_NO":999,"REV_AT_EPOCH":12790,"BSTAR":0,"MEAN_MOTION_DOT":-2.5e-7,"MEAN_MOTION_DDOT":0},{"OBJECT_NAME":"O3B FM18","OBJECT_ID":"2019-020D","EPOCH":"2026-04-05T16:55:28.831584","MEAN_MOTION":5.00115358,"ECCENTRICITY":0.0002731,"INCLINATION":0.0533,"RA_OF_ASC_NODE":1.1669,"ARG_OF_PERICENTER":14.3141,"MEAN_ANOMALY":344.5262,"EPHEMERIS_TYPE":0,"CLASSIFICATION_TYPE":"U","NORAD_CAT_ID":44115,"ELEMENT_SET_NO":999,"REV_AT_EPOCH":12802,"BSTAR":0,"MEAN_MOTION_DOT":-2.5e-7,"MEAN_MOTION_DDOT":0},{"OBJECT_NAME":"SALSAT","OBJECT_ID":"2020-068K","EPOCH":"2026-04-05T13:55:30.104256","MEAN_MOTION":15.28738181,"ECCENTRICITY":0.0009619,"INCLINATION":97.8868,"RA_OF_ASC_NODE":94.287,"ARG_OF_PERICENTER":186.5581,"MEAN_ANOMALY":173.5533,"EPHEMERIS_TYPE":0,"CLASSIFICATION_TYPE":"U","NORAD_CAT_ID":46495,"ELEMENT_SET_NO":999,"REV_AT_EPOCH":30426,"BSTAR":0.00035593,"MEAN_MOTION_DOT":9.877e-5,"MEAN_MOTION_DDOT":0},{"OBJECT_NAME":"O3B MPOWER F1","OBJECT_ID":"2022-174A","EPOCH":"2026-04-05T00:06:14.251968","MEAN_MOTION":5.00114922,"ECCENTRICITY":0.00056413,"INCLINATION":0.0622,"RA_OF_ASC_NODE":348.9934,"ARG_OF_PERICENTER":43.4576,"MEAN_ANOMALY":5.1082,"EPHEMERIS_TYPE":0,"CLASSIFICATION_TYPE":"U","NORAD_CAT_ID":54755,"ELEMENT_SET_NO":999,"REV_AT_EPOCH":6169,"BSTAR":0,"MEAN_MOTION_DOT":-2.6e-7,"MEAN_MOTION_DDOT":0},{"OBJECT_NAME":"O3B MPOWER F2","OBJECT_ID":"2022-174B","EPOCH":"2026-04-05T03:36:02.044224","MEAN_MOTION":5.00115573,"ECCENTRICITY":0.0005932,"INCLINATION":0.0593,"RA_OF_ASC_NODE":346.1754,"ARG_OF_PERICENTER":27.2945,"MEAN_ANOMALY":346.5447,"EPHEMERIS_TYPE":0,"CLASSIFICATION_TYPE":"U","NORAD_CAT_ID":54756,"ELEMENT_SET_NO":999,"REV_AT_EPOCH":6179,"BSTAR":0,"MEAN_MOTION_DOT":-2.6e-7,"MEAN_MOTION_DDOT":0},{"OBJECT_NAME":"O3B MPOWER F4","OBJECT_ID":"2023-059A","EPOCH":"2026-04-05T14:44:21.947424","MEAN_MOTION":5.00116099,"ECCENTRICITY":0.0007051,"INCLINATION":0.0643,"RA_OF_ASC_NODE":4.4262,"ARG_OF_PERICENTER":24.5317,"MEAN_ANOMALY":331.0801,"EPHEMERIS_TYPE":0,"CLASSIFICATION_TYPE":"U","NORAD_CAT_ID":56367,"ELEMENT_SET_NO":999,"REV_AT_EPOCH":5497,"BSTAR":0,"MEAN_MOTION_DOT":-2.5e-7,"MEAN_MOTION_DDOT":0},{"OBJECT_NAME":"O3B MPOWER F3","OBJECT_ID":"2023-059B","EPOCH":"2026-04-05T15:32:18.927456","MEAN_MOTION":5.00116689,"ECCENTRICITY":0.0006597,"INCLINATION":0.0654,"RA_OF_ASC_NODE":4.4262,"ARG_OF_PERICENTER":14.1633,"MEAN_ANOMALY":341.4335,"EPHEMERIS_TYPE":0,"CLASSIFICATION_TYPE":"U","NORAD_CAT_ID":56368,"ELEMENT_SET_NO":999,"REV_AT_EPOCH":5110,"BSTAR":0,"MEAN_MOTION_DOT":-2.5e-7,"MEAN_MOTION_DDOT":0},{"OBJECT_NAME":"O3B MPOWER F9","OBJECT_ID":"2025-153A","EPOCH":"2026-04-05T14:46:31.626912","MEAN_MOTION":5.00116263,"ECCENTRICITY":0.0005188,"INCLINATION":0.0512,"RA_OF_ASC_NODE":14.9752,"ARG_OF_PERICENTER":25.9093,"MEAN_ANOMALY":319.1532,"EPHEMERIS_TYPE":0,"CLASSIFICATION_TYPE":"U","NORAD_CAT_ID":64866,"ELEMENT_SET_NO":999,"REV_AT_EPOCH":1593,"BSTAR":0,"MEAN_MOTION_DOT":-2.5e-7,"MEAN_MOTION_DDOT":0},{"OBJECT_NAME":"O3B MPOWER F10","OBJECT_ID":"2025-153B","EPOCH":"2026-04-05T18:45:11.937024","MEAN_MOTION":5.00115053,"ECCENTRICITY":0.0003552,"INCLINATION":0.0519,"RA_OF_ASC_NODE":9.9571,"ARG_OF_PERICENTER":256.9952,"MEAN_ANOMALY":93.006,"EPHEMERIS_TYPE":0,"CLASSIFICATION_TYPE":"U","NORAD_CAT_ID":64867,"ELEMENT_SET_NO":999,"REV_AT_EPOCH":1840,"BSTAR":0,"MEAN_MOTION_DOT":-2.5e-7,"MEAN_MOTION_DDOT":0}]
